[{"OBJECT_NAME":"STARLINK-3594","OBJECT_ID":"2022-022AV","EPOCH":"2026-03-09T04:52:32.118528","MEAN_MOTION":15.08861203,"ECCENTRICITY":0.00014175,"INCLINATION":53.2192,"RA_OF_ASC_NODE":1.3024,"ARG_OF_PERICENTER":91.6222,"MEAN_ANOMALY":268.4932,"EPHEMERIS_TYPE":0,"CLASSIFICATION_TYPE":"U","NORAD_CAT_ID":51895,"ELEMENT_SET_NO":999,"REV_AT_EPOCH":22317,"BSTAR":0.000112297,"MEAN_MOTION_DOT":1.501e-5,"MEAN_MOTION_DDOT":0},{"OBJECT_NAME":"OBJECT B","OBJECT_ID":"2025-226B","EPOCH":"2026-03-09T23:02:31.139232","MEAN_MOTION":15.09715314,"ECCENTRICITY":0.00204156,"INCLINATION":97.6443,"RA_OF_ASC_NODE":147.8366,"ARG_OF_PERICENTER":114.3969,"MEAN_ANOMALY":245.9393,"EPHEMERIS_TYPE":0,"CLASSIFICATION_TYPE":"U","NORAD_CAT_ID":65939,"ELEMENT_SET_NO":999,"REV_AT_EPOCH":2260,"BSTAR":0.00038297064,"MEAN_MOTION_DOT":6.14e-5,"MEAN_MOTION_DDOT":0}]
